NORAD_CAT_ID,OBJECT_NAME,OBJECT_TYPE,EPOCH,MEAN_MOTION,ECCENTRICITY,INCLINATION,RA_OF_ASC_NODE,ARG_OF_PERICENTER,MEAN_ANOMALY,BSTAR,MEAN_MOTION_DOT,MEAN_MOTION_DDOT,TLE_LINE0,TLE_LINE1,TLE_LINE2,SEMIMAJOR_AXIS,PERIOD,APOGEE,PERIGEE,DECAYED
51985.0,STARLINK-3651,PAYLOAD,2024-01-23 00:09:34,15.08841916,0.0001569,53.219,285.7985,95.2786,264.8385,8.5553e-06,-1.52e-06,0.0,0 STARLINK-3651,1 51985U 22025AF  24023.00664682 -.00000152  00000-0  85553-5 0  9992,2 51985  53.2190 285.7985 0001569  95.2786 264.8385 15.08841916103803,6917.875,95.437,540.825,538.654,0.0
51985.0,STARLINK-3651,PAYLOAD,2024-01-23 22:24:57,15.08843903,0.0001534,53.2175,281.6315,102.6086,257.5078,2.767e-05,1.52e-06,0.0,0 STARLINK-3651,1 51985U 22025AF  24023.93400432  .00000152  00000-0  27670-4 0  9999,2 51985  53.2175 281.6315 0001534 102.6086 257.5078 15.08843903103947,6917.868,95.437,540.795,538.672,0.0
51985.0,STARLINK-3651,PAYLOAD,2024-01-24 00:00:20,15.08845189,0.000163,53.218,281.3353,106.9354,253.1817,4.5038e-05,4.29e-06,0.0,0 STARLINK-3651,1 51985U 22025AF  24024.00024279  .00000429  00000-0  45038-4 0  9994,2 51985  53.2180 281.3353 0001630 106.9354 253.1817 15.08845189105048,6917.865,95.437,540.857,538.602,0.0
51985.0,STARLINK-3651,PAYLOAD,2024-01-24 20:40:22,15.08835997,0.0001786,53.218,277.4703,120.3438,239.7731,2.8282e-06,-2.43e-06,0.0,0 STARLINK-3651,1 51985U 22025AF  24024.86137178 -.00000243  00000-0  28282-5 0  9999,2 51985  53.2180 277.4703 0001786 120.3438 239.7731 15.08835997105173,6917.893,95.438,540.993,538.522,0.0
51985.0,STARLINK-3651,PAYLOAD,2024-01-24 22:15:45,15.0883635,0.0001763,53.2179,277.1724,119.0338,241.0831,2.4098e-06,-2.5e-06,0.0,0 STARLINK-3651,1 51985U 22025AF  24024.92761143 -.00000250  00000-0  24098-5 0  9990,2 51985  53.2179 277.1724 0001763 119.0338 241.0831 15.08836350104091,6917.892,95.438,540.976,538.537,0.0
51985.0,STARLINK-3651,PAYLOAD,2024-01-25 04:37:17,15.08843175,0.0001457,53.2174,275.9822,103.4162,256.6993,7.1053e-05,8.43e-06,0.0,0 STARLINK-3651,1 51985U 22025AF  24025.19256629  .00000843  00000-0  71053-4 0  9997,2 51985  53.2174 275.9822 0001457 103.4162 256.6993 15.08843175105223,6917.871,95.437,540.744,538.728,0.0
51985.0,STARLINK-3651,PAYLOAD,2024-01-25 22:06:33,15.08833354,0.0001402,53.217,272.7144,92.256,267.8593,-8.1635e-05,-1.587e-05,0.0,0 STARLINK-3651,1 51985U 22025AF  24025.92122018 -.00001587  00000-0 -81635-4 0  9997,2 51985  53.2170 272.7144 0001402  92.2560 267.8593 15.08833354104247,6917.901,95.438,540.736,538.796,0.0
51985.0,STARLINK-3651,PAYLOAD,2024-01-25 23:41:56,15.08832594,0.0001639,53.218,272.418,88.1772,271.9408,-1.8163e-05,-5.77e-06,0.0,0 STARLINK-3651,1 51985U 22025AF  24025.98746000 -.00000577  00000-0 -18163-4 0  9990,2 51985  53.2180 272.4180 0001639  88.1772 271.9408 15.08832594105344,6917.903,95.438,540.902,538.634,0.0
51985.0,STARLINK-3651,PAYLOAD,2024-01-26 23:32:42,15.08849382,0.0001428,53.2172,267.9566,85.7895,274.326,0.00013309,1.831e-05,0.0,0 STARLINK-3651,1 51985U 22025AF  24026.98104631  .00001831  00000-0  13309-3 0  9997,2 51985  53.2172 267.9566 0001428  85.7895 274.3260 15.08849382105499,6917.852,95.437,540.705,538.729,0.0
51985.0,STARLINK-3651,PAYLOAD,2024-01-27 20:12:43,15.08840319,0.0001384,53.2168,264.0843,90.3226,269.7924,2.5924e-05,1.25e-06,0.0,0 STARLINK-3651,1 51985U 22025AF  24027.84217576  .00000125  00000-0  25924-4 0  9998,2 51985  53.2168 264.0843 0001384  90.3226 269.7924 15.08840319105622,6917.879,95.438,540.702,538.787,0.0
51985.0,STARLINK-3651,PAYLOAD,2024-01-27 21:48:07,15.08840029,0.0001328,53.2175,263.7847,96.4516,263.6628,2.2747e-05,7.4e-07,0.0,0 STARLINK-3651,1 51985U 22025AF  24027.90841486  .00000074  00000-0  22747-4 0  9991,2 51985  53.2175 263.7847 0001328  96.4516 263.6628 15.08840029104549,6917.88,95.438,540.664,538.827,0.0
51985.0,STARLINK-3651,PAYLOAD,2024-01-28 00:58:53,15.08840315,0.0001386,53.2176,263.194,91.6838,268.4313,3.7427e-05,3.08e-06,0.0,0 STARLINK-3651,1 51985U 22025AF  24028.04089506  .00000308  00000-0  37427-4 0  9995,2 51985  53.2176 263.1940 0001386  91.6838 268.4313 15.08840315104560,6917.879,95.438,540.703,538.786,0.0
51985.0,STARLINK-3651,PAYLOAD,2024-01-28 21:38:54,15.08829525,0.0001506,53.2181,259.3271,74.2849,285.8309,0.00017776,2.541e-05,0.0,0 STARLINK-3651,1 51985U 22025AF  24028.90201656  .00002541  00000-0  17776-3 0  9997,2 51985  53.2181 259.3271 0001506  74.2849 285.8309 15.08829525104695,6917.912,95.438,540.819,538.736,0.0
51985.0,STARLINK-3651,PAYLOAD,2024-01-30 00:40:26,15.08845684,0.000156,53.2174,254.2728,77.4189,282.6978,8.9987e-05,1.145e-05,0.0,0 STARLINK-3651,1 51985U 22025AF  24030.02808750  .00001145  00000-0  89987-4 0  9994,2 51985  53.2174 254.2728 0001560  77.4189 282.6978 15.08845684105951,6917.863,95.437,540.807,538.649,0.0
51985.0,STARLINK-3651,PAYLOAD,2024-01-30 21:20:26,15.08852666,0.0001397,53.2166,250.4085,93.6129,266.5022,9.0673e-05,1.156e-05,0.0,0 STARLINK-3651,1 51985U 22025AF  24030.88920096  .00001156  00000-0  90673-4 0  9992,2 51985  53.2166 250.4085 0001397  93.6129 266.5022 15.08852666104990,6917.842,95.437,540.673,538.74,0.0
51985.0,STARLINK-3651,PAYLOAD,2024-01-31 14:49:42,15.0883444,0.0001588,53.2166,247.136,102.4027,257.7143,2.8543e-05,1.66e-06,0.0,0 STARLINK-3651,1 51985U 22025AF  24031.61785162  .00000166  00000-0  28543-4 0  9994,2 51985  53.2166 247.1360 0001588 102.4027 257.7143 15.08834440106197,6917.897,95.438,540.861,538.664,0.0
51985.0,STARLINK-3651,PAYLOAD,2024-02-01 16:15:53,15.08839187,0.0001766,53.2164,242.3778,111.1025,249.0156,-0.00010446,-1.95e-05,0.0,0 STARLINK-3651,1 51985U 22025AF  24032.67769784 -.00001950  00000-0 -10446-3 0  9999,2 51985  53.2164 242.3778 0001766 111.1025 249.0156 15.08839187106357,6917.883,95.438,540.97,538.526,0.0
51985.0,STARLINK-3651,PAYLOAD,2024-02-02 19:17:26,15.08833208,0.0001367,53.2161,237.3248,92.8053,267.3095,8.0918e-05,1e-05,0.0,0 STARLINK-3651,1 51985U 22025AF  24033.80377976  .00001000  00000-0  80918-4 0  9999,2 51985  53.2161 237.3248 0001367  92.8053 267.3095 15.08833208106525,6917.901,95.438,540.712,538.82,0.0
51985.0,STARLINK-3651,PAYLOAD,2024-02-02 20:52:49,15.08834403,0.0001319,53.216,237.0276,87.8454,272.2689,8.8484e-05,1.12e-05,0.0,0 STARLINK-3651,1 51985U 22025AF  24033.87001914  .00001120  00000-0  88484-4 0  9991,2 51985  53.2160 237.0276 0001319  87.8454 272.2689 15.08834403105440,6917.897,95.438,540.675,538.85,0.0
51985.0,STARLINK-3651,PAYLOAD,2024-02-02 22:28:12,15.08834911,0.0001344,53.2161,236.7305,90.152,269.9626,9.1215e-05,1.164e-05,0.0,0 STARLINK-3651,1 51985U 22025AF  24033.93625900  .00001164  00000-0  91215-4 0  9999,2 51985  53.2161 236.7305 0001344  90.1520 269.9626 15.08834911105458,6917.896,95.438,540.691,538.831,0.0
51985.0,STARLINK-3651,PAYLOAD,2024-02-03 22:18:59,15.08839377,0.0001358,53.2161,232.2692,90.0869,270.0279,8.3572e-05,1.042e-05,0.0,0 STARLINK-3651,1 51985U 22025AF  24034.92985929  .00001042  00000-0  83572-4 0  9991,2 51985  53.2161 232.2692 0001358  90.0869 270.0279 15.08839377105603,6917.882,95.438,540.687,538.808,0.0
51985.0,STARLINK-3651,PAYLOAD,2024-02-04 12:37:28,15.08841218,0.0001384,53.2163,229.5945,89.9847,270.1304,4.6597e-05,4.54e-06,0.0,0 STARLINK-3651,1 51985U 22025AF  24035.52602053  .00000454  00000-0  46597-4 0  9994,2 51985  53.2163 229.5945 0001384  89.9847 270.1304 15.08841218105693,6917.877,95.437,540.699,538.784,0.0
51985.0,STARLINK-3651,PAYLOAD,2024-02-04 18:59:00,15.08841869,0.0001377,53.2162,228.4047,90.4072,269.7078,4.9004e-05,4.92e-06,0.0,0 STARLINK-3651,1 51985U 22025AF  24035.79097982  .00000492  00000-0  49004-4 0  9990,2 51985  53.2162 228.4047 0001377  90.4072 269.7078 15.08841869105731,6917.875,95.437,540.692,538.787,0.0
51985.0,STARLINK-3651,PAYLOAD,2024-02-05 06:06:42,15.08842248,0.0001369,53.2162,226.3227,89.1257,270.9892,5.3714e-05,5.67e-06,0.0,0 STARLINK-3651,1 51985U 22025AF  24036.25465892  .00000567  00000-0  53714-4 0  9997,2 51985  53.2162 226.3227 0001369  89.1257 270.9892 15.08842248106897,6917.874,95.437,540.686,538.791,0.0
51985.0,STARLINK-3651,PAYLOAD,2024-02-05 18:49:47,15.08843525,0.0001344,53.216,223.9437,90.3014,269.8132,4.0675e-05,3.6e-06,0.0,0 STARLINK-3651,1 51985U 22025AF  24036.78457771  .00000360  00000-0  40675-4 0  9995,2 51985  53.2160 223.9437 0001344  90.3014 269.8132 15.08843525105880,6917.87,95.437,540.664,538.805,0.0
51985.0,STARLINK-3651,PAYLOAD,2024-02-06 12:19:01,15.08843108,0.000128,53.2156,220.6722,91.0266,269.0873,4.3299e-05,4.01e-06,0.0,0 STARLINK-3651,1 51985U 22025AF  24037.51321659  .00000401  00000-0  43299-4 0  9993,2 51985  53.2156 220.6722 0001280  91.0266 269.0873 15.08843108107087,6917.871,95.437,540.621,538.85,0.0
51985.0,STARLINK-3651,PAYLOAD,2024-02-06 18:40:34,15.08844465,0.0001332,53.216,219.4837,86.2603,273.8541,5.1959e-05,5.39e-06,0.0,0 STARLINK-3651,1 51985U 22025AF  24037.77817510  .00000539  00000-0  51959-4 0  9991,2 51985  53.2160 219.4837 0001332  86.2603 273.8541 15.08844465106030,6917.867,95.437,540.653,538.81,0.0
51985.0,STARLINK-3651,PAYLOAD,2024-02-07 18:31:21,15.08836977,0.0001335,53.2162,215.0237,83.3354,276.779,5.5721e-06,-1.99e-06,0.0,0 STARLINK-3651,1 51985U 22025AF  24038.77178175 -.00000199  00000-0  55721-5 0  9994,2 51985  53.2162 215.0237 0001335  83.3354 276.7790 15.08836977107276,6917.89,95.438,540.678,538.831,0.0
51985.0,STARLINK-3651,PAYLOAD,2024-02-07 21:42:08,15.08838673,0.0001335,53.2161,214.428,81.3491,278.7652,1.119e-05,-1.1e-06,0.0,0 STARLINK-3651,1 51985U 22025AF  24038.90426048 -.00000110  00000-0  11190-4 0  9998,2 51985  53.2161 214.4280 0001335  81.3491 278.7652 15.08838673106202,6917.884,95.438,540.673,538.826,0.0
51985.0,STARLINK-3651,PAYLOAD,2024-02-08 12:00:36,15.08833438,0.0001375,53.2165,211.7509,79.1327,280.982,-3.8065e-05,-8.94e-06,0.0,0 STARLINK-3651,1 51985U 22025AF  24039.50042758 -.00000894  00000-0 -38065-4 0  9997,2 51985  53.2165 211.7509 0001375  79.1327 280.9820 15.08833438106292,6917.9,95.438,540.717,538.814,0.0
